[{"OBJECT_NAME":"GCOM-C (SHIKISAI)","OBJECT_ID":"2017-082A","EPOCH":"2026-03-09T22:50:15.762048","MEAN_MOTION":14.27292109,"ECCENTRICITY":0.00011018,"INCLINATION":98.6348,"RA_OF_ASC_NODE":143.8758,"ARG_OF_PERICENTER":107.3468,"MEAN_ANOMALY":252.7834,"EPHEMERIS_TYPE":0,"CLASSIFICATION_TYPE":"U","NORAD_CAT_ID":43065,"ELEMENT_SET_NO":999,"REV_AT_EPOCH":42778,"BSTAR":9.0011429e-5,"MEAN_MOTION_DOT":1.76e-6,"MEAN_MOTION_DDOT":0},{"OBJECT_NAME":"THORAD AGENA D DEB","OBJECT_ID":"1969-082DZ","EPOCH":"2026-03-09T22:19:21.329472","MEAN_MOTION":14.31682322,"ECCENTRICITY":0.00678931,"INCLINATION":70.0574,"RA_OF_ASC_NODE":336.6403,"ARG_OF_PERICENTER":288.9929,"MEAN_ANOMALY":70.3848,"EPHEMERIS_TYPE":0,"CLASSIFICATION_TYPE":"U","NORAD_CAT_ID":4326,"ELEMENT_SET_NO":999,"REV_AT_EPOCH":92324,"BSTAR":0.00033689761,"MEAN_MOTION_DOT":8.64e-6,"MEAN_MOTION_DDOT":0}]
